NAME,ADDRESSPOSTALCODE,ADDRESSSTREETNAME,HYPERLINK,TOTALROOMS,KEEPERNAME,Lat,Lng,ICON_NAME
Jayleen Clarke Quay Hotel,59390,25 New Bridge Road,jayleenclarkequay@gmail.com,20,James Federick Chong Kah Yean,1.28871525038832,103.847502570641,hotel.gif
JEN Singapore Orchardgateway by Shangri-La,238858,"277 Orchard Road , # 10-01",singaporeorchardgateway@hoteljen.com,499,Kuok Oon Kwong,1.30050954183517,103.839224077005,hotel.gif
JEN Singapore Tanglin by Shangri-La,249716,1A Cuscaden Road,singaporetanglin@hoteljen.com,565,Kuok Oon Kwong,1.3042705309298,103.823912360589,hotel.gif
JH HOTEL,399041,8 LORONG 10 GEYLANG,anguskt@gmail.com,42,CHEN ZHIQIONG,1.311585869313,103.877460163672,hotel.gif
Ji Hotel Orchard Singapore,238485,11 PENANG LANE INNOTEL,NA,81,Koo Sheuan,1.297722839747,103.844455112735,hotel.gif
Jin Dong Hotel,399007,33 Lorong 12 Geylang,NA,33,ong kum fatt,1.31022734045131,103.87880673682,hotel.gif
Joyfor Singapore,389226,135 Geylang Road,joyfor.sg@gmail.com,17,Koo Seck Chong,1.31118301196188,103.873959999289,hotel.gif
JW Marriott Hotel Singapore South Beach,189763,30 Beach Road,jw.sinjw.contactus@marriott.com,634,STEPHANE LOUIS FABREGOUL,1.29465290571138,103.855516058723,hotel.gif
K Hotel,399199,44 LORONG 6 GEYLANG,NA,56,CAI WENCHAO,1.30999424174174,103.876502260862,hotel.gif
Holiday Inn Express Singapore Katong,423371,"88 EAST COAST ROAD, # 07-05 KATONG SQUARE",NA,451,Adel Aramouni,1.30485336795088,103.904574228644,hotel.gif
Holiday Inn Express Singapore Orchard Road,229921,20 Bideford Road,info.sinex@ihg.com,221,Najeeb Kurungottu,1.30322795583465,103.836680368343,hotel.gif
Holiday Inn Express Singapore Serangoon,209019,270 JALAN BESAR,NA,119,Garside Ashleigh Maree,1.31014109037569,103.858630348608,hotel.gif
Holiday Inn Singapore Atrium,169075,317 Outram Road,hiatrium@ichotelsgroup.com,518,Tuncay Bockin,1.28907019166027,103.834068286993,hotel.gif
Holiday Inn Singapore Orchard City Centre,229616,11 Cavenagh Road,info.hisinorchard@ihg.com,324,Gobind Naroomal Gary Harilela @Gary Harilela,1.30227912538394,103.841101584501,hotel.gif
Home Suite View Hotel,398993,12 Lorong 12 Geylang,homesuite12@gmail.com,175,SWEE WEIDI,1.31140043113114,103.878121318914,hotel.gif
Hoover Hotel,329706,"246 Balestier Road , # 02-01",NA,42,Lim Choon Hua,1.32170313863895,103.853069621772,hotel.gif
Hotel 165,208532,165 Kitchener Road,jackson@hotel165.sg,68,Siah Wei Bin,1.31047892595777,103.856274002503,hotel.gif
Hotel 1888,58479,"20 TRENGGANU STREET, # 01-03 JINSHAN HOTEL",justin.wong@hotel1888.com.sg,40,Adrian Siow Shen Ngin,1.28285932265539,103.843899635185,hotel.gif
Hotel 81 - Balestier,329688,226 Balestier Road,hotel81@hotel81.com.sg,53,Chu Poh Yong,1.32138046634844,103.853123339191,hotel.gif
Hotel 81 - Bugis,188995,31 Middle Road,hotel81@hotel81.com.sg,88,Chu Poh Yong,1.29687853383032,103.855618625297,hotel.gif
Hotel 81 - Changi,419871,"428 Changi Road , # 01-01",hotel81@hotel81.com.sg,80,Chu Poh Yong,1.31869115633081,103.911729077231,hotel.gif
Hotel 81 - Cherry,399014,3 Lorong 12 Geylang,hotel81@hotel81.com.sg,53,Chu Poh Yong,1.31199127691196,103.878417449833,hotel.gif
Hotel 81 - Chinatown,59418,181 New Bridge Road,hotel81@hotel81.com.sg,95,Chu Poh Yong,1.28456367163908,103.844098495279,hotel.gif
Hotel 81 - Cosy,89263,8 Jiak Chuan Road,hotel81@hotel81.com.sg,39,Chu Poh Yong,1.27966689951546,103.841859436164,hotel.gif
Hotel 81 - Dickson,209530,3 Dickson Road,hotel81@hotel81.com.sg,196,Chu Poh Yong,1.30490446592441,103.854269341864,hotel.gif
Hotel 81 - Elegance,209276,"30 Foch Road , # 01-01",hotel81@hotel81.com.sg,120,Chu Poh Yong,1.31237964690163,103.860271946103,hotel.gif
Hotel 81 - Fuji,329720,269 Balestier Road,hotel81@hotel81.com.sg,78,Chu Poh Yong,1.32218490550845,103.852599854946,hotel.gif
The Quay Hotel West Coast,118769,428 PASIR PANJANG ROAD SANTA GRAND HOTEL WEST COAST,NA,42,Heng Chern Chieh Germaine,1.29233444235646,103.768589721055,hotel.gif
The Quincy Hotel,228517,22 Mount Elizabeth,info.tqh@fareast.com.sg,108,Kurukulasuriya Shakila Mehani Fernando,1.30775153247414,103.835748313428,hotel.gif
Golden Star Hotel,399095,31 Lorong 8 Geylang,goldenstarhotel@yahoo.com.sg,43,Timothy Seah How Ming,1.31076953969736,103.877336359038,hotel.gif
Goodwood Park Hotel,228221,22 Scotts Road,enquiries@goodwoodparkhotel.com.sg,233,"Khoo Bee Geok, Mavis",1.30822214594427,103.83410906863,hotel.gif
Grand Hyatt Singapore,228211,10 Scotts Road,singapore.grand@hyatt.com,677,Willi Beat Martin,1.3063453359855,103.833283334569,hotel.gif
Grand Mercure Roxy Hotel,428769,50 East Coast Road,H3610-FO16@accor.com,576,Ng Wai Peng,1.3043259893264,103.904051128937,hotel.gif
Grand Park City Hall,179809,10 Coleman Street,info.gpch@parkhotelgroup.com,343,Jeane Lim Sook Tiang,1.29262894189275,103.850123925268,hotel.gif
Grand Park Orchard,238857,270 Orchard Road,infor.gpor@parkhotelgroup.com,308,Lim Kang-Ling,1.30310525131104,103.836202012782,hotel.gif
GREENDILI BACKPACKERS HOSTEL,218673,427 RACE COURSE ROAD GREENDILI BACKPACKERS HOSTEL,GREENDILIHOSTEL@GMAIL.COM,9,SUN KANGQING,1.3159109329182,103.857555410336,hotel.gif
Haising Hotel,208801,33A Jalan Besar,hs@haising.com.sg,56,Tan Boon Yong Dominic,1.30462079031568,103.854580698492,hotel.gif
Harbour Ville Hotel,99448,512 Kampong Bahru Road,harbourv@singnet.com.sg,100,Lim Shirley,1.27261402571663,103.827744716094,hotel.gif
Harbour Ville Hotel Hamilton,209210,40 HAMILTON ROAD,NA,43,SOH SHIL NIE,1.31156411968173,103.861509695837,hotel.gif
7 Wonders Hostel,208930,257 Jalan Besar,NA,5,Shahjahan Bin Mohamed Sitthiq,1.31019236449532,103.858155071754,hotel.gif
7 Wonders Hostel @ Upper Dickson,207472,12A UPPER DICKSON ROAD CLIFDEN HOSTEL,hr@7wondershostel.com,8,SHAHJAHAN BIN MOHAMED SITTHIQ,1.30635176142908,103.852350568271,hotel.gif
ABC HOSTEL,199201,3  Jalan Kubor (1st Storey),booking@abchostel.com.sg,23,TEO WEN HAO,1.30366887875577,103.859267550804,hotel.gif
Adamson Lodge,208127,6 Perak Road,query_chris@yahoo.com.sg,7,Lee Choon Chuan,1.30448415943975,103.852965178949,hotel.gif
AL Asia Hotel,389447,488 GEYLANG ROAD,NA,16,Lim Siew Iy @ Lim Siew Ching,1.31324104846935,103.8846809303,hotel.gif
Aliwal Park Hotel,199948,77 Aliwal Street,aliwalpark77@gmail.com,53,Wong Lee Peng,1.30336025012185,103.860268091316,hotel.gif
"Amara Sanctuary Resort, Sentosa",99394,1 Larkhill Road,sentosa@amarasanctuary.com,140,Joseph Thiang Thin Poh,1.25212800048918,103.822016591014,hotel.gif
Amara Singapore,88539,165 Tanjong Pagar Road,singapore@amarahotels.com,380,Joseph Thiang Thin Poh,1.27493473787886,103.843500117167,hotel.gif
Amrise Hotel,387436,"112 Sims Avenue , # 01-01",reservation@amrisehotel.com,58,LIM TIM BOCK,1.31392297209217,103.877872197764,hotel.gif
Ann Siang House,69708,28 ANN SIANG ROAD,NA,20,Manchharam Ashish,1.2807288857312,103.845721510662,hotel.gif
Aqueen Heritage Hotel - Joo Chiat,427373,51 Joo Chiat Road,NA,70,Chan Boon Tat,1.31496412930389,103.8986087202,hotel.gif
AQUEEN Heritage Hotel - Little India,219962,22 BELILIOS LANE AQUEEN HERITAGE HOTEL - LITTLE INDIA,NA,70,Chan Boon Tat,1.30736540957505,103.851868266106,hotel.gif
AQUEEN Hotel - Kitchener,208906,230 Jalan Besar,NA,74,Chan Boon Tat,1.30929085528988,103.858027585848,hotel.gif
Arcadia Hotel,209201,32 Hamilton Road,wyneo@arcadiahotel.com.sg,36,Neo Wan Yong,1.31144511621404,103.861344016453,hotel.gif
Arianna Hotel,207662,83 Syed Alwi Road,accounts@arianna.com.sg,51,Ng Swee Yak,1.30898195611065,103.855916077404,hotel.gif
Ark Hostel,389200,83B Geylang Road,singaporelodgingpteltd@gmail.com,31,Kelvin Tng Eng Khai,1.31083993031984,103.872957810113,hotel.gif
Arton Hotel,207576,176 Tyrwhitt Road,NA,109,Ooi Teck Hin,1.31200012479956,103.860855935208,hotel.gif
Ascott Orchard Singapore,229724,11 CAIRNHILL ROAD,NA,220,Wong Mei Ling Judy,1.30398869691117,103.837118390961,hotel.gif
Ascott Singapore Raffles Place,49247,2 Finlayson Green,enquiry@the-ascott.com,146,Judy Wong Mei Ling,1.28208454707961,103.851544401021,hotel.gif
Asia Star Hotel,207995,44 Rowell Road,johnnyangys@hotmail.com,14,Ang Ying Soon,1.30850392397464,103.854724878876,hotel.gif
Beary Best! Hostel Kampong Glam,199761,"64 ARAB STREET, # 00-00",BearyKG@abearygoodhostel.com,4,MARECHAL PIERRE JEAN M,1.30120414903648,103.859394682355,hotel.gif
BEAT. Sports Hostel,208953,290A Jalan Besar,sports@beathostel.co,13,JEREMY TEO,1.31064624214852,103.85890444877,hotel.gif
Betel Box Backpackers Hostel,427471,200 Joo Chiat Road,info@betelbox.com,6,Tan Say Kiong,1.31220268168059,103.900168104154,hotel.gif
Blanc Inn,207564,151 Tyrwhitt Road,blancinn@gmail.com,4,Iek Tong Wah,1.3118099599849,103.860152247876,hotel.gif
Bliss Hotel Singapore,58353,62 Upper Cross Street,reservation@blisshotel.com.sg,42,Kee Khek Thai,1.28445774430707,103.844304195694,hotel.gif
Blue Jazz Hostel,208916,243 JALAN BESAR,NA,5,Wang CuiRong,1.30982597177326,103.85790553137,hotel.gif
Breeze Inn,199135,3 JALAN PINANG ADAMSON INN,breezeinn8@gmail.com,16,LIN YI YUN,1.30258711150837,103.858436453128,hotel.gif
Bright Star Hotel,388575,20 Lorong 17 Geylang,brightstarhotel@yahoo.com.sg,86,Pauline Seah Swee Lian,1.31351593312261,103.878864871244,hotel.gif
Broadway Hotel,218067,195 Serangoon Road,broadwayhotelsingapore@yahoo.com,65,Sim Seng Quee,1.30917900212984,103.853224451953,hotel.gif
BudgetOne Hotel,398793,10 LORONG 18 GEYLANG BUDGETONE HOTEL,NA,49,Lim Kee Huat,1.31221720783339,103.880423593148,hotel.gif
BUTTERNUTTREE HOTEL,88392,22 TECK LIM ROAD PARK 22 HOTEL CHINATOWN,NA,55,WIWIN CHRISTANTI GHOBIND,1.28063133791161,103.841824512271,hotel.gif
Cameron Hotel,486917,393F Upper Changi Road,info@cameronhotel.com.sg,19,Nicholas Ong Ann Wei,1.33674234821614,103.954974045383,hotel.gif
Campbell Inn,209922,50 CAMPBELL LANE CHECKERS BACKPACKERS,NA,10,Wang Cuirong,1.30499470478209,103.852641538954,hotel.gif
"Capella Hotel, Singapore",98297,1 The Knolls,gr.singapore@capellahotels.com,193,Fernando Gibaja Garcia-Zarco,1.24948297406912,103.824378229099,hotel.gif
"Capri By Fraser Changi City, Singapore",486037,3 Changi Business Park Central 1  Changi City,resvn.changicity@capribyfraser.com,313,Vernon Lee Koon Yong,1.3342655648281,103.963583777969,hotel.gif
"Capri By Fraser China Square, Singapore",58743,181 SOUTH BRIDGE ROAD,reservations.singapore@capribyfraser.com,304,Vernon Lee Koon Yong,1.28401467620777,103.847061684457,hotel.gif
CapsulePod@Aljunied,388194,76A LORONG 27 GEYLANG,NA,8,YAN TONGJI,1.31594220611958,103.883955325222,hotel.gif
Carlton City Hotel Singapore,78862,1 Gopeng Street,douglas.glen@carltoncity.sg,386,Douglas Maxwell Glen,1.27595845561159,103.84369850009,hotel.gif
Carlton Hotel,189558,76 Bras Basah Road,mail@carltonhotel.sg,940,Darren Leroy Ware,1.29592644324195,103.852518906013,hotel.gif
Champion Hotel,427726,60 Joo Chiat Road,janet@championhotel.com.sg,81,Lim Liang Jason,1.31473398017971,103.898375899105,hotel.gif
Changi Cove,509866,351 Cranwell Road,enquiry@changicove.com,141,Chew Tee Yen,1.38857514608333,103.975654971312,hotel.gif
Cherryloft Resorts,509404,159 Jalan Loyang Besar,resorts@cherryloft.com,186,ONG RYAN ZHENGYONG,1.37916855177722,103.958317578175,hotel.gif
Circular House,49362,6 CIRCULAR ROAD,NA,12,AMIT BHAGAT,1.28795051990571,103.848964671913,hotel.gif
Citadines Rochor Singapore,218227,"2 SERANGOON ROAD, # 03-01 TEKKA PLACE",frontoffice.crsg@the-ascott.com,320,WONG MEI LING JUDY,1.30512221745202,103.851438825178,hotel.gif
City Backpackers,59661,18 Hongkong Street,citybackpackers@hotmail.com,11,Tan Kee Chong Derrick,1.2878039882589,103.847281913664,hotel.gif
Hawaii Hostel,189641,169A Bencoolen Street,NA,83,Ng Kun Heng,1.30156897150731,103.852244669339,hotel.gif
Heritage Collection on Chinatown,58776,"227 SOUTH BRIDGE ROAD, # 01-03",NA,27,Yap Hui Wen,1.28277324511435,103.845722570878,hotel.gif
Heritage Collection on Seah,188395,39 SEAH STREET,NA,18,Yap Hui Wen,1.29589846119217,103.855088788757,hotel.gif
Hilton Garden Inn Singapore Serangoon,219924,3 Belilios Road,singi.hotel@hilton.com,328,Eva Moral,1.30833559981707,103.851928685296,hotel.gif
Hilton Singapore,238883,581 Orchard Road,sinhi@hilton.com,423,Peter Webster,1.30587902148372,103.829314887852,hotel.gif
Holiday Inn Express Singapore Clarke Quay,59573,2 Magazine Road,info.sincq@ihg.com,442,Alexandra Pauline Kloprogge,1.28924402665703,103.841983925747,hotel.gif
Amoy Hotel,48464,76 Telok Ayer Street,info.amoy@fareast.com.sg,37,Clemence Cheah,1.28300038937659,103.84864539809,hotel.gif
Andaz Singapore,189354,5 FRASER STREET,singapore@andaz.com,342,Karl Stephan Oliver,1.29916295638181,103.857859544648,hotel.gif
AQUEEN Prestige Hotel - Lavender,209204,35 HAMILTON ROAD,NA,72,Chan Boon Tat,1.31180974026488,103.861297941112,hotel.gif
ARABIC INN,199745,48 ARAB STREET KAMPONG @ ARAB,NA,6,sun kangqing,1.30078636753127,103.859681427203,hotel.gif
Beach Villas,98135,20 Sentosa Gateway,enquires@rwsentosa.com,35,Sim Wai Peng Tina,1.25923773923788,103.81654785488,hotel.gif
Bluewaters Pod,188091,"2 TAN QUEE LAN STREET, # 02-01 ATLANTIS PODS @ BUGIS",bluewatershospitalitypl@gmail.com,5,ANG QIU PING,1.29800182513386,103.856934787679,hotel.gif
CHAMPION HOTEL CITY,59293,37 NORTH CANAL ROAD,janet@championhotel.com.sg,33,Lim Liang Jason,1.28705545548872,103.847101673167,hotel.gif
Checkers Hostel @ Beach Road,199550,285 BEACH ROAD,MSRPHILIP@YAHOO.COM,23,MD SHAMSUR RAHMAN,1.30094429153444,103.860424414343,hotel.gif
Crockfords Tower,98270,10 Sentosa Gateway,enquires@rwsentosa.com,121,Sim Wai Peng Tina,1.25593387293635,103.819279861729,hotel.gif
D'Hotel,169040,231 OUTRAM ROAD WANGZ HOTEL,NA,41,WONG MEI LING JUDY,1.2843221081918,103.835010036802,hotel.gif
Dusit Thani Laguna Singapore,488047,11 LAGUNA GOLF GREEN LAGUNA NATIONAL GOLF & COUNTRY CLUB,NA,198,Piatti Eric Michel,1.32397331115705,103.962657084899,hotel.gif
Equarius Hotel,98133,16 Sentosa Gateway,enquiries@rwsentosa.com,183,Sim Wai Peng Tina,1.25767113430044,103.816896687818,hotel.gif
Festive Hotel,98271,12 Sentosa Gateway,enquiries@rwsentosa.com,447,Sim Wai Peng Tina,1.25602110299293,103.819026715795,hotel.gif
"Four Points by Sheraton Singapore, Riverview",169629,382 Havelock Road,finance@fourpointssingaporeriverview.com,476,Ho Chung Kain,1.28937098412522,103.836603813301,hotel.gif
Genting Hotel Jurong,608516,2 Town Hall Link,enquiries@rwsentosa.com,557,Sim Wai Peng Tina,1.33156162898379,103.739259626278,hotel.gif
Grand Copthorne Waterfront Hotel Singapore,169663,392 Havelock Road,enquiry.gcw@millenniumhotels.com,574,PJEY MAYANDI,1.29028192700494,103.835147957844,hotel.gif
Hard Rock Hotel,98139,28 Sentosa Gateway,enquiries@rwsentosa.com,364,Sim Wai Peng Tina,1.25746583281896,103.818913907351,hotel.gif
Heritage Collection on Boat Quay Quayside Wing,49864,76 BOAT QUAY,NA,41,YAP HUI WEN,1.28820207478702,103.849195879682,hotel.gif
Heritage Collection on Clarke Quay,58670,36 SOUTH BRIDGE ROAD LAI NGUANG BUILDING,NA,19,Yap Hui Wen,1.28808237913163,103.848499242966,hotel.gif
Hotel 1929,89154,50 KEONG SAIK ROAD Q LOFT HOTEL1929@CHINATOWN,NA,33,Tang Han Min Alan,1.28079216116778,103.841812331317,hotel.gif
Hotel Calmo Chinatown,58476,25 TRENGGANU STREET HOTEL 1887,NA,80,CAI WENCHAO,1.28256763758547,103.844175157457,hotel.gif
HOTEL CLASSIC,427353,12 JOO CHIAT ROAD,classic@venuehotel.sg,75,CHU POH YONG,1.31564277206077,103.897717275598,hotel.gif
Hotel Clover 769 North Bridge Road,198737,769 NORTH BRIDGE ROAD HOTEL CLOVER 769 NORTH BRIDGE ROAD,info@hotelclover769.com,35,"TEO JUN LIANG, JEREMY",1.30367081350441,103.859584470771,hotel.gif
Hotel Compass,398693,36 LORONG 22 GEYLANG HOTEL COMPASS,NA,49,JIN CHENCHEN,1.31100479193402,103.881864219755,hotel.gif
Hotel Michael,98269,8 Sentosa Gateway,enquiries@rwsentosa.com,464,Sim Wai Peng Tina,1.25493344657437,103.820219415166,hotel.gif
ibis budget Singapore Ametrine,399043,10 LORONG 10 GEYLANG,NA,38,Gan Kuan Yew,1.31145566986313,103.877505973005,hotel.gif
ibis budget Singapore Joo Chiat,427485,219 Joo Chiat Road,contact@fragrancehotel.com,90,GAN KUAN YEW,1.31149498302754,103.901246960843,hotel.gif
K Hotel 1515,388607,15 LORONG 15 GEYLANG ZEN ROOMS 1515,NA,80,CAI WENCHAO,1.31316413429455,103.878027379987,hotel.gif
K SPACE INN OWEN,218903,91A OWEN ROAD,NA,6,CAI WENCHAO,1.31333978908028,103.853166698166,hotel.gif
KINN,58673,39 SOUTH BRIDGE ROAD,RESERVATIONS@STAYWITHKINN.COM,7,BRANDON SMITH,1.28748835671493,103.848550528151,hotel.gif
M Hotel Singapore,79908,81 Anson Road,enquiry.mhs@millenniumhotels.com,415,Kung Teong Wah,1.27368776927434,103.84506021481,hotel.gif
New Cape Inn,168891,3 SENG POH ROAD GREEN WORLD,NA,76,CHRISTOPHER ELY,1.28556429182439,103.834075884942,hotel.gif
Oh My Suites,207309,3 VEERASAMY ROAD REDDOORZ PREMIUM @ SERANGOON,NA,24,"LEE YI, CHRISTABELLE",1.30782184572235,103.853089993362,hotel.gif
Orchard Hotel Singapore,238879,442 Orchard Road,NA,656,Wong On Tat Andy,1.30766860889292,103.82816440606,hotel.gif
Park 22 Hotel Little India,219184,60 KERBAU ROAD PARK 22 HOTEL LITTLE INDIA,NA,31,ROY LENG ZHENG,1.30761951351103,103.850729187175,hotel.gif
"PARKROYAL Collection Pickering, Singapore",58289,3 Upper Pickering Street,NA,367,JACOPIN JEAN-PHILIPPE DANIEL,1.28563913664569,103.846290282213,hotel.gif
Regin Hotel,387416,56 SIMS AVENUE ZEN ROOMS OASIS,NA,46,Heng Siam Khim,1.3132565842406,103.875894248569,hotel.gif
Rucksack Inn 2 @Lavender,338800,280A Lavender Street,NA,12,Dorit Grueber,1.31436249656989,103.860315945966,hotel.gif
Rucksack Inn@Lavender,338800,280  Lavender Street,lavender@rucksackinn.com,7,Dorit Grueber,1.31436249656989,103.860315945966,hotel.gif
ST Signature Chinatown,58822,273A SOUTH BRIDGE ROAD,xinfang.ng@straitsorg.com,25,Goh Keng Hong,1.28184250020967,103.845275724046,hotel.gif
ST Signature Jalan Besar,207372,15 UPPER WELD ROAD BUNC HOSTEL,NA,69,Goh Keng Hong,1.30536577750822,103.854840702869,hotel.gif
The Hive@bugis,199137,5 JALAN PINANG TREE IN LODGE,NA,8,YAN TONGJI,1.30262934394456,103.858395163567,hotel.gif
The Pan Pacific Hotel Singapore,39595,7 Raffles Boulevard,enquiry.ppsin@panpacific.com,790,Paul Margaret Spence,1.29111728356103,103.857758269035,hotel.gif
The Warehouse Hotel,169628,320 HAVELOCK ROAD,NA,37,Tarun Kalra,1.28920188923002,103.837472602698,hotel.gif
Village Hotel Changi,508502,1 Netheravon Road,info.vhc@fareast.com.sg,380,Teo Kah Eng,1.3904021092424,103.986061074378,hotel.gif
Village Hotel Katong,449536,25 Marine Parade Road,info.vhk@fareast.com.sg,229,Terence Govinden,1.30377936120631,103.902912251967,hotel.gif
Hotel 81 - Geylang,398863,20 Lorong 16 Geylang,hotel81@hotel81.com.sg,88,Chu Poh Yong,1.31178580684439,103.879565363057,hotel.gif
Hotel 81 - Gold,398738,20 Lorong 20 Geylang,hotel81@hotel81.com.sg,98,Chu Poh Yong,1.3119564255497,103.881122145385,hotel.gif
Classique Hotel,208913,"240 Jalan Besar , # 01-01",reservations@classiquehotel.com.sg,42,Ang Beng MAY,1.30942994343081,103.85816175664,hotel.gif
COLLER BOUTIQUE HOSTEL,169056,259 OUTRAM ROAD,NA,11,KHOO HOCK CHYE,1.28500519507722,103.834726678247,hotel.gif
Concorde Hotel Singapore,238840,100 Orchard Road,singapore@concorde.net,418,Karl Lee Muir,1.30061437146928,103.842228053204,hotel.gif
Conrad Centennial Singapore,38982,2 Temasek Boulevard,sinci_acc@conradhotels.com,512,Peter Toi,1.29352504343592,103.858774751329,hotel.gif
Copthorne King Hotel Singapore,169632,403 Havelock Road,rooms@copthornekings.com.sg,313,Yeoh Cheng Kung,1.28825959921985,103.836642496764,hotel.gif
Courtyard By Marriott Singapore Novena,329568,"99 IRRAWADDY ROAD, # 22-00 ROYAL SQUARE AT NOVENA",NA,250,Khong Cheng Hoe Peter,1.32059476707049,103.843165090044,hotel.gif
Coziee Lodge,389198,77A Geylang Road,denniskyj@gmail.com,5,"Kwek Yi Jun, Dennis",1.31077389402222,103.8728758866,hotel.gif
Crowne Plaza Changi Airport,819664,75 Airport Boulevard,sincp@ihg.com,563,Cristol Bruno Olivier,1.35868034734966,103.987947172552,hotel.gif
Days Hotel Singapore At Zhongshan Park,329133,1 Jalan Rajah,info@dayshotelsingapore.com,405,Tony John Cousens,1.32697770059675,103.847365855383,hotel.gif
Destination Singapore Beach Road,199598,700 BEACH ROAD 700 BEACH,Beelay.Pua@yourdestinationhotel.com,300,Steven Tang,1.30236655161918,103.864169303074,hotel.gif
Diamond Hotel,398806,25 Lorong 18 Geylang,diamondhotelreservations@gmail.com,42,Tan Hui Sion,1.31186042184822,103.880838668454,hotel.gif
Dorsett Singapore,88765,333 New Bridge Road,info.singapore@dorsetthotels.com,285,Khoo Lee Ping Jessie,1.27962668340609,103.840007598921,hotel.gif
Duxton Reserve,89540,83 Duxton Road,NA,49,Harpreet Kaur Bedi,1.27887034636785,103.843187860266,hotel.gif
EIGHTEEN BY THREE CABINS,68722,3 STANLEY STREET,k.yap@18by3.com,18,Lim Keong Wee,1.27987745135108,103.847645143301,hotel.gif
"Fairmont, Singapore",189560,80 Bras Basah Road,singapore@fairmont.com,772,Marcus Moris Hanna,1.2940764375654,103.853331832592,hotel.gif
five/6 Hotel Splendour,399167,5 LORONG 6 GEYLANG,NA,71,Teo Chou Chun,1.31090999883113,103.876690711173,hotel.gif
Fortuna Hotel,218842,2 Owen Road,reservations@fortunahotel.com.sg,105,Chong Hiew Kwang,1.31170732725136,103.854953210301,hotel.gif
Four Chain View Hotel,389659,757 Geylang Road,fchain@fourchain.com.sg,44,Ng Ah Hoi,1.31502461447216,103.890924420622,hotel.gif
Four Seasons Hotel,248646,190 Orchard Boulevard,NA,259,DRAMINSKY PETER CHRISTIAN,1.30521021365117,103.828652722779,hotel.gif
Fragrance Hotel - Balestier,329710,255 Balestier Road,contact@fragrancehotel.com,48,SUN YI,1.32197356951015,103.852659081425,hotel.gif
Fragrance Hotel - Classic,329808,418 Balestier Road,contact@fragrancehotel.com,48,SUN YI,1.32586501711441,103.849620250658,hotel.gif
Fragrance Hotel - Kovan,534629,760 Upper Serangoon Road,contact@fragrancehotel.com,43,SUN YI,1.35406396857104,103.878733101613,hotel.gif
Fragrance Hotel - Lavender,338710,51 Lavender Street,contact@fragrancehotel.com,35,Sun Yi,1.30978959074307,103.863070799569,hotel.gif
Fragrance Hotel - Oasis,329816,435 Balestier Road,contact@fragrancehotel.com,36,SUN YI,1.32588609260467,103.848605457803,hotel.gif
Fragrance Hotel - Ocean View,118773,432 Pasir Panjang Road,contact@fragrancehotel.com,47,Sun Yi,1.29241376307725,103.768512802074,hotel.gif
Fragrance Hotel - Rose,329715,263 Balestier Road,contact@fragrancehotel.com,68,Sun Yi,1.32207178695444,103.852564813209,hotel.gif
Fragrance Hotel - Viva,98721,75 Wishart Road,contact@fragrancehotel.com,33,Sun Yi,1.2698880661334,103.813969784211,hotel.gif
Furama City Centre Singapore,59804,60 Eu Tong Sen Street,financemgr.fcc@furama.com,445,Ng Wei Yong,1.28647356154828,103.844588552748,hotel.gif
Furama Riverfront Singapore,169633,405 Havelock Road,furama.riverfront@furama.com,615,Ng Wei Yeow,1.28763453813819,103.836092838867,hotel.gif
G4 Station Backpackers Hostel,228675,11 Mackenzie Road,info@g4station.com,23,Lee Fut Hua,1.3043490812321,103.849908920215,hotel.gif
GALLOP CHANGI BEACH RESORT,509671,49 HENDON ROAD,NA,40,MANIMAHALAI D/O CHAKRAPANI,1.38894206635745,103.980568397632,hotel.gif
GALLOP HILL TOP RESORT,287992,100 TURF CLUB ROAD,enquiry@gallopresort.com,40,MANIMAHALAI D/O CHAKRAPANI,1.33434829779462,103.795854254263,hotel.gif
GALLOP KRANJI FARM RESORT,718813,10 NEO TIEW LANE 2 D' KRANJI FARM RESORT,enquiry@gallopresort.com,37,MANIMAHALAI D/O CHAKRAPANI,1.41927815815058,103.718425687867,hotel.gif
Gap Year Hostel,338821,322 Lavender Street,gapyearhostel@gmail.com,7,Yee Seng Fu,1.31564004044032,103.859427833289,hotel.gif
Gay World Hotel,389218,115 Geylang Road,NA,27,Seah Ming Kwong,1.31119516204353,103.873741281934,hotel.gif
GOLDEN HOSTEL,160146,"146 JALAN BUKIT MERAH, # 01-1088",NA,7,Tham Keng Pong,1.27784875913754,103.830811464545,hotel.gif
Golden Royal Hotel,209645,51 Desker Road,eugene@goldenroyal-hotel.com,54,Ee Kee Chai,1.30914206986635,103.855250945612,hotel.gif
Cube @ Kampong Glam,199471,55 BUSSORAH STREET,NA,7,SONIA TAY MING HUI,1.30162127482298,103.859372517722,hotel.gif
CUBE @ smith street,58971,76A SMITH STREET,NA,7,TAY MING HUI SONIA,1.28316218264506,103.843006363679,hotel.gif
Cube Family Boutique Capsule Hotel @ Chinatown,58967,68A Smith Street,booking@yeschinatownpoint.com,24,TAY MING HUI SONIA,1.28303982961697,103.843161495087,hotel.gif
Darlene Hotel (Geylang),399096,32 Lorong 8 Geylang,darlenehotel@gmail.com,62,Teh Gek Keng,1.31090126773808,103.87696990266,hotel.gif
Travelodge Harbourfront Singapore,98828,50 TELOK BLANGAH ROAD BAY HOTEL SINGAPORE,NA,334,Wong Siew Khee,1.26633679754561,103.823792222833,hotel.gif
Urban Hostel,388189,67A Lorong 27 Geylang,NA,11,Tan Kee Chong Derrick,1.31612667222578,103.883723595489,hotel.gif
V Hotel Bencoolen,189627,48 Bencoolen Street,vhotel@vhotel.sg,272,Ng Lip Sek,1.29894385553217,103.850763169012,hotel.gif
V Hotel Lavender,208767,70 Jellicoe Road,vhotel@vhotel.sg,888,Edmund Yip Chak Mun,1.3078092747122,103.862525582449,hotel.gif
Venue Hotel,427556,305 Joo Chiat Road,contact@venuehotel.sg,81,Chu Poh Yong,1.30957900907828,103.902428918272,hotel.gif
Venue Hotel The Lily,427495,238  Joo Chiat Road,venuelily@venuehotel.sg,84,Chu Poh Yong,1.31154791813894,103.900582467694,hotel.gif
Victoria Hotel,188016,87 VICTORIA STREET VICTORIA HOTEL,reservations@victoriana.sg,89,Loo Wai Peng,1.29709985440985,103.852442326555,hotel.gif
Villa Samadhi Singapore,119193,20 LABRADOR VILLA ROAD,NA,20,Federico Asaro,1.268937683637,103.800885641861,hotel.gif
Village Hotel Albert Court,189971,180 Albert Street,info.vhac@fareast.com.sg,210,Terence Govinden,1.30390260082807,103.85071667183,hotel.gif
Village Hotel Bugis,188061,390 Victoria Street,info.vhb@fareast.com.sg,393,Gill Ishwinder,1.30192812751591,103.857668954773,hotel.gif
Village Hotel Sentosa,99951,"10 ARTILLERY AVENUE, # 02-01",NA,606,JIM KHOO WEI KWAN,1.25225951518978,103.819943383466,hotel.gif
Vintage Inn@Clarke Quay,59672,"33 HONGKONG STREET, # 3-33B",NA,5,HO TING CHEE,1.28741331170278,103.847112672325,hotel.gif
VIP Hotel,259895,5 Balmoral Crescent,booking@viphotel.com.sg,57,Peter Yang,1.3156477325095,103.834573063566,hotel.gif
W Singapore Sentosa Cove Hotel,98374,21 Ocean Way,NA,240,Heath Nicholas Robin,1.24616550353468,103.842428148098,hotel.gif
Wanderlust,209494,2 DICKSON ROAD,NA,29,Ashish Manchharam,1.30512093794701,103.854629633951,hotel.gif
Wink Hostel,59488,8A Mosque Street,NA,9,Allan Lee @ Lee Kheen Woon,1.28394841482097,103.844144231952,hotel.gif
Wink Hostel @ Downtown,69044,3B MCCALLUM STREET,NA,10,Chon Yik Mau,1.27968475056385,103.84757635916,hotel.gif
XY HOTEL BUGIS by ASANDA HOTELS AND RESORTS,199323,11 JALAN KLAPA THE ARDENNES,bugis_accounts@xyglobalhotel.com,15,HAN BIN,1.30420913008075,103.859686467655,hotel.gif
Yew Lian Hotel,389504,549A Geylang Road,NA,18,Chang Ying,1.31400085109484,103.885504024451,hotel.gif
York Hotel,228516,21 Mount Elizabeth,enquiry@yorkhotel.com.sg,407,Khoo Elizabeth,1.30692538671184,103.835187499512,hotel.gif
YOTEL Singapore Orchard Road,238904,366 ORCHARD ROAD,brendan.daly@yotel.com,610,DALY BRENDAN FRANCIS,1.30634429879401,103.831347094612,hotel.gif
YotelAir Singapore Changi Airport,819666,"78 AIRPORT BOULEVARD, # 04-280",jca.finance@yotel.com,130,Nicholas James Cheesman,1.36034099671656,103.989077555194,hotel.gif
30 BENCOOLEN,189621,30 BENCOOLEN STREET,andrew.bastian@30bencoolen.com.sg,131,TAN KHENG HWEE,1.29850072017742,103.850402269195,hotel.gif
Aqueen Hotel - Paya Lebar,409180,33 Jalan Afifi,NA,162,Chan Boon Tat,1.32208820086546,103.891617685857,hotel.gif
Hotel 81 - Heritage,198985,71 Jalan Sultan Road,hotel81@hotel81.com.sg,64,Chu Poh Yong,1.30271606708358,103.861299879306,hotel.gif
Hotel 81 - Hollywood,399121,61 Lorong 8 Geylang,hotel81@hotel81.com.sg,112,Chu Poh Yong,1.31005583680827,103.877447760285,hotel.gif
Hotel 81 - Joy,388703,11 Lorong 11 Geylang,hotel81@hotel81.com.sg,42,Chu Poh Yong,1.31278803988666,103.876803320046,hotel.gif
Hotel 81 - Kovan,534636,"768 Upper Serangoon Road , # 02-01",hotel81@hotel81.com.sg,89,Chu Poh Yong,1.35420717029808,103.878866751339,hotel.gif
Hotel 81 - Lavender,338716,85 Lavender Street,hotel81@hotel81.com.sg,85,Chu Poh Yong,1.31075782011892,103.862351670103,hotel.gif
Hotel 81 - Lucky,398741,23 Lorong 20 Geylang,hotel81@hotel81.com.sg,77,Chu Poh Yong,1.31187964409268,103.881497891026,hotel.gif
hotel ascendere pte ltd,399035,1 LORONG 10 GEYLANG,NA,25,ONG KUM FATT,1.31192211161234,103.877736767198,hotel.gif
K HOTEL 12,399045,12 LORONG 10 GEYLANG,NA,28,CAI WENCHAO,1.31128855675534,103.877512889799,hotel.gif
K HOTEL 14,399047,14 LORONG 10 GEYLANG,NA,45,CAI WENCHAO,1.31123084152033,103.87754128742,hotel.gif
K2 Guesthouse,118146,15 SOUTH BUONA VISTA ROAD,hello@k2guesthouse.com,24,KAY SIEW HWA,1.28061805876119,103.786403408371,hotel.gif
K2 Guesthouse Central,208852,134 JALAN BESAR,NA,15,WOON LI MING RACHEL,1.30668645165441,103.856401207739,hotel.gif
Asphodel Inn,218702,380 Race Course Road (Level 2),asphoinn@yahoo.com.sg,55,Ong Poi Hwa,1.31503287812628,103.857271555227,hotel.gif
Backpacker Cozy Corner Guesthouse,188736,490 North Bridge Road (Level 2),happyjohn@cozycornerguest.com,15,"TEO FA YU, ALVIN",1.29837018983764,103.855776386801,hotel.gif
Balestier Hotel,329842,471 Balestier Road,balestier_hotel@yahoo.com,42,Chia Kwee Beng,1.3263318785208,103.847825737271,hotel.gif
Beary Best! Hostel,58332,18 Upper Cross Street,enquiry@abearygoodhostel.com,11,Teo Pei Han Janine,1.28384606770696,103.84538117333,hotel.gif
"Mandarin Oriental, Singapore",39797,5 Raffles Avenue Marina Square,NA,527,Christian Andreas Hassing,1.29066058376185,103.858323986493,hotel.gif
Marina Bay Sands Singapore,18956,1 Bayfront Avenue,inquiries@marinabaysands.com,2561,Pek Chin Siong,1.28233335098225,103.858308388607,hotel.gif
Marrison @ Desker,209598,75 Desker Road,reservations@marrisonhotel.com,25,Silvi,1.30887261138248,103.855693846613,hotel.gif
Marrison Hotel,189704,103 Beach Road,reservations@marrisonhotel.com,96,Silvi,1.2978909223511,103.857087531077,hotel.gif
Maxwell Reserve,78857,2 COOK STREET,NA,138,Harpreet Kaur Bedi,1.27915221128811,103.844367354691,hotel.gif
Mayo Inn,208786,9 Jalan Besar,admin@mayoinn.com,22,Terrance Tay Yew Soon,1.30392257669472,103.854120522794,hotel.gif
Meadows Hostel,209178,7A Hamilton Road,meadowshostel@gmail.com,6,Charlie Chia,1.31139113939717,103.860677173023,hotel.gif
Mercure Singapore Bugis,188973,122 MIDDLE ROAD MIDLINK PLAZA,NA,395,"Wong Weng Fatt, Philip",1.29963654287271,103.853083051198,hotel.gif
Mercure Singapore on Stevens,257878,"28 STEVENS ROAD, # 02-01",H9561-gm@accor.com,518,Kevin Glenn Bossino,1.31394109858619,103.828399493406,hotel.gif
Meriton Hotel,208804,43A Jalan Besar,jackson@hotel165.sg,40,Teo Ai Choo,1.30474091460126,103.854659348388,hotel.gif
Min Wah Hotel,398676,19 Lorong 22 Geylang,96ytlim@gmail.com,97,Lim Yeoh Toong,1.31219823372169,103.882461230625,hotel.gif
MKS Backpackers' Hostel,209757,44 Cuff Road,NA,5,Muthukumaran S/O Varthan,1.30679667251442,103.853524372799,hotel.gif
Moni Gallery Hostel,338795,263 Lavender Street,enquiry@monigalleryhostel.com,9,Muhammad Syafiee Bin Fidrishah,1.31544170610706,103.858988963033,hotel.gif
Naumi,188396,41 SEAH STREET NAUMI,NA,73,Surya Kumar Jhunjhnuwala,1.29586808458378,103.855181687112,hotel.gif
New Cathay Hotel (Geylang),389403,443A Geylang Road,newcathayhotel@yahoo.com.sg,53,Timothy Seah How Ming,1.31323581232938,103.881747206923,hotel.gif
New Orchid Hotel,329777,347 Balestier Road,neworchidhotel@hotmail.com,68,Lim Lay Meng,1.32429128090849,103.85103942858,hotel.gif
New Society Backpacker,208934,259A Jalan Besar,newsoc259@gmail.com,4,Ho Chiuen Sheey,1.31023794252736,103.858259328995,hotel.gif
Nostalgia Hotel,168727,77 Tiong Bahru Road,frontdesk@hotelnostalgia.com.sg,50,Ranjitha De Silva,1.28509462357436,103.833551413429,hotel.gif
Novotel Singapore On Stevens,257878,"28 STEVENS ROAD, # 01-01",H9543-gm@accor.com,254,Kevin Glenn Bossino,1.31394109858619,103.828399493406,hotel.gif
OAKWOOD PREMIER AMTD SINGAPORE,68809,"6 SHENTON WAY, # 07-01 OUE DOWNTOWN",NA,268,Roy Liang Ming Kai,1.27698070007554,103.848408637443,hotel.gif
"Oasia Hotel Downtown, Singapore",79333,100 Peck Seah Street,reseasy@fareast.com.sg,314,Chai Khye Yeien,1.27585063042586,103.844244859294,hotel.gif
"Oasia Hotel Novena, Singapore",307470,8 Sinaran Drive,frontofc.ohs@fareast.com.sg,428,Karamjit Kaur,1.32003004588439,103.844782388216,hotel.gif
Oasia Resort Sentosa,98679,"23 BEACH VIEW LE MERIDIEN SINGAPORE, SENTOSA",NA,191,KHOO WEI KWAN JIM,1.25329365829851,103.81955756883,hotel.gif
One Farrer Hotel,217562,1 Farrer Park Station Road,NA,249,Gilbert Madhavan,1.31275667459011,103.853842196119,hotel.gif
ONE15 Marina Club,98497,11 Cove Drive,frontdesk@one15marina.com,26,Tay Teng Hock,1.2465985797506,103.838344779654,hotel.gif
"Orchard Rendezvous Hotel, Singapore",247905,1 Tanglin Road,info@orh.com.sg,388,Wong Siew Ling,1.3065751631695,103.827739432245,hotel.gif
Orchid Hotel,78867,1 Tras Link,resv@orchidhotel.com.sg,272,Chng Beng Siong,1.27693674003785,103.843847231635,hotel.gif
Oxford Hotel,188549,218 Queen Street,reservation@oxfordhotel.com.sg,134,Mohamed Rafi Bin Hasan,1.29801057337893,103.851820111255,hotel.gif
Pan Pacific Serviced Suites Beach Road,199592,7500B Beach Road,NA,180,Choong Nyuk Fee,1.29943396113579,103.860232906684,hotel.gif
Parc Sovereign Hotel,189970,175 Albert Street,contact@parcsovereign.com,172,Tan Thuang Wee,1.30359193738081,103.851186611181,hotel.gif
Parc Sovereign Hotel - Tyrwhitt,207569,165 Tyrwhitt Road,contact@parcsovereign.com,270,Sun Yi,1.3123170980015,103.860633791231,hotel.gif
Park Avenue Changi,486015,2 Changi Business Park Avenue 1,serenetan@uel.sg,251,Sun Li Jing @ Ryan Sun,1.33576405585821,103.963024016311,hotel.gif
Park Avenue Rochester,138637,31 Rochester Drive,serenetan@uel.sg,351,Sun Li Jing @ Ryan Sun,1.30535120421258,103.788347378512,hotel.gif
Park Hotel Alexandra,159972,323 Alexandra Road Alexandra Central,info.phal@parkhotelgroup.com,442,Ng Sock Heng,1.28757994526013,103.805370079297,hotel.gif
Park Hotel Clarke Quay,237983,1 Unity Street,info.phcq@parkhotelgroup.com,340,Lim Kang Ling,1.29154596321778,103.842327428168,hotel.gif
PARK HOTEL FARRER PARK,217564,10 FARRER PARK STATION ROAD FARRER SQUARE,NA,300,Yong Guan Chuan,1.31198097077815,103.854748159228,hotel.gif
Park Regis Singapore,58268,23 Merchant Road,gmprsi@parkregissingapore.com,202,Lim Soon Hwee,1.28808355052563,103.844443322367,hotel.gif
Park View Hotel,189692,81 Beach Road,parkview@parkview.com.sg,88,Lim Min Wee Ernest,1.29720601629426,103.856493969017,hotel.gif
"PARKROYAL COLLECTION  Marina Bay, Singapore",39594,6 RAFFLES BOULEVARD MARINA SQUARE,NA,575,Lim Wen Pin Melvin,1.29145525906521,103.857007341008,hotel.gif
PARKROYAL on Kitchener Road,208533,181 Kitchener Road,enquiry@kr.parkroyalhotels.com,532,CHUNG KUM SENG,1.31053024250151,103.855657430547,hotel.gif
Pasir Panjang Inn,118741,404 Pasir Panjang Road,ppinn@pacific.net.sg,54,Ang Poh Seow,1.29207833471118,103.770167551417,hotel.gif
Peninsula.Excelsior Hotel,179805,5 Coleman Street,enquiries@ytchotels.com.sg,591,Wong Liang Tong,1.29194591965028,103.849820409422,hotel.gif
Penta Hotel,219894,33 Birch Road,booking@pentahotel.com.sg,48,Lim Hwee Meang Rachel,1.31119377982074,103.853597393505,hotel.gif
Perak Hotel,208133,12 Perak Road,perlodge@singnet.com.sg,32,Tong Kok Chiang,1.30477735433313,103.853212740709,hotel.gif
Pine Hostel @ Lavender,207566,153A TYRWHITT ROAD QINAN BUILDING,pinehostelsg@gmail.com,7,"TAN KEE CHONG, DERRICK",1.31190914918039,103.860208871905,hotel.gif
Populous Hotel,188933,23 MIDDLE ROAD,info@populoushotel.com,80,Silvi,1.29678178848365,103.855722993909,hotel.gif
Porcelain Hotel,59526,48 Mosque Street,enquiry@porcelainhotel.com,138,Hu Yingna,1.28423977707313,103.844285506043,hotel.gif
Quality Hotel Marlow,329926,201 Balestier Road,dm@qualityhotelmarlow.com.sg,240,ONG CHIEW SENG KELLVIN,1.3200518654597,103.852519737986,hotel.gif
RedDoorz @ Geylang,397662,61 WESTERHOUT ROAD,NA,33,Amit Saberwal,1.31122558409044,103.881036636411,hotel.gif
RedDoorz Plus @ Little India,209507,"23 DICKSON ROAD, # 1-01-01 MOON 23 HOTEL",NA,80,AMIT SABERWAL,1.3050887952847,103.854059862488,hotel.gif
RedDoorz Premium @ Balestier,329795,387 BALESTIER ROAD,NA,46,Amit Saberwal,1.32522597394005,103.849916615644,hotel.gif
RELC International Hotel,258352,30 ORANGE GROVE ROAD RELC BUILDING,NA,151,FRANCIS CHOO KOH ENG,1.31283861068763,103.826031941452,hotel.gif
Rendezvous Hotel Singapore,189559,9 Bras Basah Road,reseasy@fareast.com.sg,298,Douglas Fernandez,1.29858303536992,103.849316109185,hotel.gif
Rest Bugis Hotel,199207,8 JALAN KUBOR SANTA GRAND HOTEL BUGIS,NA,74,Adrian Siow Shen Ngin,1.30405334691991,103.859429082823,hotel.gif
River City Inn,59672,33C Hongkong Street,rivercityinn.sg@gmail.com,4,Loke Weng Yian,1.28741331170278,103.847112672325,hotel.gif
RM Hotel,638404,10 Tuas West Drive,recept@rafflesmarina.com.sg,19,Parry Raymond John,1.34158800024817,103.635089828004,hotel.gif
Robertson Quay Hotel,239032,15 Merbau Road,accounts@robertsonquayhotel.com.sg,148,Ng Swee Huat,1.29116819945429,103.841985961154,hotel.gif
Royal India Hotel,207667,"88 Syed Alwi Road , # 01-02",sales@royalindiahotel.com,43,Ee Kee Chai,1.30922887156542,103.855672473307,hotel.gif
Royal Plaza,228220,25 Scotts Road,royal@royalplaza.com.sg,511,Patrick Fiat,1.30708931817226,103.83144576982,hotel.gif
S Inn Chinatown,58597,52 Temple Street,ct@s-inn.co,13,Li Xiaojia,1.28330904377112,103.84359520029,hotel.gif
S Inn Clarke Quay,59677,38A Hongkong Street,cq@s-inn.co,11,LI XIAOJIA,1.28732233868587,103.847321862853,hotel.gif
Sandpiper Hotel,209391,63 Dunlop Street,reservations@sandpiperhotels.com,31,Pankaj Pandit,1.30480931241135,103.853595766242,hotel.gif
Santa Grand Hotel East Coast,428877,171 East Coast Road,reservations@santagrand.stayariva.com,73,Siah Siew Geok,1.30672319863699,103.905795541013,hotel.gif
Seng Wah Hotel,398673,15 Lorong 22 Geylang,sengwahhotel@hotmail.com,16,Han Siew Ying,1.31231758276067,103.882411818147,hotel.gif
Shangri-La Hotel,258350,22 Orange Grove Road,sls@shangri-la.com,792,Kuok Oon Kwong,1.31124740290096,103.826756760616,hotel.gif
"Shangri-La's Rasa Sentosa Resort & Spa, Singapore",98970,101 Siloso Road Sentosa,sen@shangri-la.com,454,Kuok Oon Kwong,1.25780205516677,103.809797894322,hotel.gif
Sheraton Towers Singapore Hotel,228230,39 Scotts Road,sheraton.towers.singapore@sheraton.com,420,Long Sie Fong,1.31195052968093,103.836462155528,hotel.gif
Siloso Beach Resort,99538,51 Imbiah Walk,accounts@silosobeachresort.com,195,NG YU TECK,1.25498728174306,103.814500414013,hotel.gif
Sing Hoe Hotel,437761,759 Mountbatten Road,NA,41,ong kum fatt,1.30076129162384,103.891452441641,hotel.gif
Singapore Marriott Tang Plaza Hotel,238865,320 Orchard Road,NA,403,Alvin Lim Yue Ping (Lin Youbin),1.3050223054635,103.832874081575,hotel.gif
Singapore OSS Backpackers Hostel Pte Ltd,209180,"9 HAMILTON ROAD, # 01-01",sossbackpackers@gmail.com,9,RAJENDRA PRASAD S/O N N SRINIVASA NAIDU,1.31141627021243,103.860729254991,hotel.gif
SO Sofitel Singapore,68876,35 Robinson Road,H8655@sofitel.com,134,Mazen Abil Mona,1.27992196206236,103.849654800023,hotel.gif
Sofitel Singapore City Centre,78885,9 WALLICH STREET,NA,223,Wouter Frank De Graaf,1.2769051570011,103.845070104293,hotel.gif
Sofitel Singapore Sentosa Resort & Spa,99891,2 Bukit Manis Road,h9474@sofitel.com,215,PIOTR JAN KUPIEC,1.24579708620123,103.827492431992,hotel.gif
ST Signature Bugis Beach,189694,85 BEACH ROAD 85 BEACH GARDEN HOTEL,NA,38,"Goh Shen Shu, Donovan",1.29730337226863,103.856569786349,hotel.gif
ST Signature Tanjong Pagar,78972,32 TRAS STREET,NA,92,"SEAH HUI XIAN, JOANNE",1.27865807402423,103.84425057595,hotel.gif
St. Regis Hotel Singapore,247911,29 Tanglin Road,stregis.singapore@stregis.com,299,Radu Cernia,1.30566140857401,103.826053513866,hotel.gif
Strand Hotel,189619,25 Bencoolen Street,reservations@strandhotel.com.sg,130,Ang Beng Hoh,1.29865275917035,103.849738602552,hotel.gif
Studio M Hotel,238910,3 Nanson Road,enquiry.smh@millenniumhotels.com,360,Othmane Amrani,1.29077754111531,103.839076191393,hotel.gif
Summer View Hotel,189642,173  Bencoolen Street,sales@summerviewhotel.com.sg,86,Lim Chin Sen,1.30165938361762,103.852237513996,hotel.gif
"Swissotel Merchant Court,Singapore",58281,20 Merchant Road,singapore-merchantcourt@swissotel.com,476,Rainer Tenius,1.28821802379383,103.845692303714,hotel.gif
"Swissotel The Stamford, Singapore",178882,2 Stamford Road,singapore-stamford@swissotel.com,1252,Marcus Moris Hanna,1.29326862339764,103.853365178371,hotel.gif
Tai Hoe Hotel,208538,163 Kitchener Road,gmgthh@gmail.om,73,Yee Loy Hoe,1.31026597160938,103.856565024278,hotel.gif
Taipei Hotel (2000),399120,60 Lorong 8 Geylang,NA,38,Tay Tiong Ying,1.30992260867721,103.877081648955,hotel.gif
The Amazing Inn,398913,1 Lorong 14 Geylang,sengwahhotel@hotmail.com,18,Han Siew Ying,1.31219356032738,103.879175568282,hotel.gif
THE BARRACKS HOTEL SENTOSA,99567,2 GUNNER LANE,NA,40,Jim Khoo Wei Kwan,1.25291730866453,103.820644196531,hotel.gif
THE CAPITOL KEMPINSKI HOTEL SINGAPORE,178906,15 STAMFORD ROAD,NA,157,Dawn Tan Woon Woon,1.29416210124999,103.850710602099,hotel.gif
The Clan Hotel,48417,10 CROSS STREET,NA,324,CHRISTINA WENDY LEE,1.28266106573536,103.848274543912,hotel.gif
The Daulat,208413,16 Madras Street,reservation@thedaulat.com,16,Shaik Mohamed S/O Mohamed Abdul Jaleel,1.30475126170812,103.852855023694,hotel.gif
The Elizabeth,228518,24 Mount Elizabeth,info@theelizabeth.com.sg,256,Mohamed Faharudin Bin Masood,1.30802411708656,103.835712305282,hotel.gif
The Fullerton Bay Hotel,49326,80 Collyer Quay,fbh.info@fullertonhotels.com,98,Giovanni Viterale,1.28396667042346,103.8534802041,hotel.gif
The Fullerton Hotel,49178,1 Fullerton Square,tfs.info@fullertonhotels.com,399,Giovanni Viterale,1.2861932360653,103.852970351253,hotel.gif
THE GREAT MADRAS,208422,28 MADRAS STREET,zubair@dam.com.sg,29,SHAIK MOHAMED S/O MOHAMED ABDUL JALEEL,1.30493595075971,103.853009974106,hotel.gif
The Hive Singapore Hostel,218223,624 SERANGOON ROAD THE HIVE,NA,13,YAN TONGJI,1.31571664407736,103.858786331918,hotel.gif
The Inn at Temple Street,58581,36 Temple Street,rsvn.room@theinn.com.sg,42,Kho Chuan Thye Patrick,1.28320660795322,103.843868478868,hotel.gif
The Keong Saik Hotel,89165,69 Keong Saik Road,reservations@keongsaikhotel.com.sg,25,Tan Koon Jim,1.28103904341286,103.841640168586,hotel.gif
The Outpost Hotel Sentosa,99951,"10 ARTILLERY AVENUE, # 03-01",NA,193,JIM KHOO WEI KWAN,1.25225951518978,103.819943383466,hotel.gif
THE QUAY HOTEL,58688,57 SOUTH BRIDGE ROAD SANTA GRAND HOTEL BOAT QUAY,NA,41,"Heng Chern Chieh, Germaine",1.2870550760207,103.848312936218,hotel.gif
The Quay Hotel Lavender,338739,139 LAVENDER STREET AQUEEN HOTEL - LAVENDER,NA,102,Heng Chern Chieh Germaine,1.31234470122478,103.861185772159,hotel.gif
Kam Leng Hotel,209001,383 Jalan Besar,reservations@kamleng.com,70,Hu Yingna,1.31322431873699,103.859699504459,hotel.gif
KeSa House,89158,"55 KEONG SAIK ROAD, # 01-02",NA,60,Manchharam Ashish,1.28061922396397,103.841542357757,hotel.gif
Kim Tian (Star) Hotel,399166,4 Lorong 6 Geylang,NA,43,Steven Han How Chye,1.31143553463831,103.876240340591,hotel.gif
La Mode (Sophia),399050,17 Lorong 10 Geylang,NA,35,Teng Ai Fong,1.3112646112522,103.877802903174,hotel.gif
Lai Ming Hotel,389396,432  Geylang Road,otl@laiming.com.sg,15,Ong Tong Liang,1.31301909204336,103.883130632629,hotel.gif
Lai Ming Hotel Cosmoland,389395,424 Geylang Road,otl@laiminghotel.com.sg,54,Ong Tong Liang,1.31285242907657,103.88287775601,hotel.gif
LEX HOTEL (LORONG 8),399073,1 LORONG 8 GEYLANG,NA,41,PANG CHIN FATT,1.31181053676029,103.877164397644,hotel.gif
Link Hotel,168733,50 Tiong Bahru Road,info@linkhotel.com.sg,274,Dong Hankun,1.28487238567456,103.834290657294,hotel.gif
Lloyd's Inn,239091,2 Lloyd Road,mail@lloydsinn.com,34,"CHANG YI WEN, JOAN",1.29726358007835,103.840365853895,hotel.gif
Lodge 41,398877,41 Lorong 16 Geylang,NA,22,Yong Chung Yung,1.31152237256803,103.880201803937,hotel.gif
lyf Funan Singapore,179370,67 HILL STREET,NA,329,Cross Norman Francis,1.29157596080638,103.84945862617,hotel.gif
M Social Singapore,238259,90 Robertson Quay,NA,293,Othmane AMRANI,1.29086699266622,103.837220928325,hotel.gif
Mandarin Orchard Singapore,238867,333 Orchard Road,orchard@meritushotels.com,1077,Danny Wong Hee Ling,1.3020645045383,103.836340959124,hotel.gif
K Hotel 8,399099,37 LORONG 8 GEYLANG,NA,27,CAI WENCHAO,1.31067428643295,103.877397285256,hotel.gif
Hotel Bencoolen,189626,47 Bencoolen Street,enquiries@hotelbencoolen.com,84,Herman Gay Teow Hua,1.29918672172522,103.850108265483,hotel.gif
Hotel Bencoolen @ Hong Kong Street,59685,47 Hongkong Street,reservation.hkst@hotelbencoolen.com,33,Herman Gay Teow Hua,1.28709359119965,103.847672305859,hotel.gif
Hotel Boss,199020,500 Jalan Sultan,contact@hotelboss.sg,1500,Goh Kok Keong,1.30571322703811,103.860266746951,hotel.gif
Hotel Calmo Bugis,189699,95 BEACH ROAD,NA,33,CAI WENCHAO,1.29750996934403,103.856724365667,hotel.gif
Hotel Chancellor @ Orchard,229635,28 Cavenagh Road,reservations@ghihotels.com.sg,488,TAN HWA LIAN,1.30145985771336,103.841931936895,hotel.gif
Hotel Clover 33 Jalan Sultan,198965,33 Jalan Sultan,enquiries@hotelclover.com,88,Zhang YuanQing,1.30201280747959,103.861729305374,hotel.gif
Hotel Clover 5 Hongkong Street,59648,5 Hongkong Street,enquiries@hotelclover5hongkongstreet.com,55,Teo Kok Hwee,1.28743138227384,103.8478409081,hotel.gif
Hotel Clover 7 Hongkong Street,59650,7 HONGKONG STREET,enquiries@hotelclover.com,27,Teo Kok Hwee,1.28746404866926,103.847711703541,hotel.gif
Hotel Clover The Arts,58689,58 South Bridge Road,NA,44,Ang Kian Kok,1.28754163889102,103.848141341165,hotel.gif
Hotel Conforto,59905,16 Carpenter Street,main@conforto.com.sg,22,Ng Wee Meng,1.28834728764827,103.847855885666,hotel.gif
Hotel Fort Canning,178881,11 Canning Walk,contact@hfcsingapore.com,86,Oh Chee Eng,1.29581266426264,103.845362056485,hotel.gif
Hotel Fuji,399541,22 Jalan Molek,hotelfuji.pl@gmail.com,30,Ho Siew Hwa,1.31170570900502,103.882676232074,hotel.gif
Hotel G Singapore,188980,200 MIDDLE ROAD BIG HOTEL,gm@hotelgsingapore.com,308,Guillaume Jean-Marc Laurent Places,1.30091639007984,103.851506467292,hotel.gif
Hotel Grand Central,229617,22 Cavenagh Road,accommodations@grandcentral.com.sg,263,Tan Hwa Lian,1.3012946724269,103.841767535762,hotel.gif
Hotel Grand Pacific,188018,101 Victoria Street,accounts@hotelgrandpacific.com.sg,240,Wee Cheng Lim,1.29755505808723,103.852228308446,hotel.gif
Hotel Indigo Singapore Katong,428788,"86 EAST COAST ROAD, # 01-01 KATONG SQUARE",NA,131,Adel Aramouni,1.30511658100901,103.904298453373,hotel.gif
Hotel Kai,188593,14 Purvis Street,hst@hotelkai.com,32,Tan Hui See,1.29652178913596,103.855405321377,hotel.gif
Hotel Mi,189623,"41 BENCOOLEN STREET, # 01-01",contact@hotelmi.sg,342,Kusaka Masaharu,1.29898582310214,103.850020544639,hotel.gif
Hotel Miramar Singapore,169631,401 Havelock Road,enquiry@miramar.com.sg,342,Lim Kian Tiong,1.28821989466535,103.837414948933,hotel.gif
Hotel Mono,59498,"18 MOSQUE STREET, # 01-04",NA,46,"QUAH TZE WEN, GLENN",1.28379045079176,103.844451263067,hotel.gif
Hotel Nuve,199143,11 Jalan Pinang,contact@hotelnuve.com,43,Soh Shil Nie,1.30275140814887,103.858275297851,hotel.gif
Hotel NuVe Elements,59680,41 HONGKONG STREET,doreen.soh@hotelnuveheritage.com,24,"SOH SHIL FANG, DOREEN",1.28723475456215,103.847485428195,hotel.gif
Hotel NuVe Heritage,188592,13 PURVIS STREET ADONIS HOTEL,NA,19,SOH SHIL NIE,1.29651404832504,103.855342376526,hotel.gif
Hotel NuVe Urbane,208582,3 KING GEORGE'S AVENUE,NA,62,Soh Shil Fang Doreen,1.30732088892971,103.858805131874,hotel.gif
Hotel Re! @ Pearl's Hill,169879,175A Chin Swee Road,hr@hotelre.com.sg,140,Tan Kwee Hiang,1.28541002481652,103.838407284725,hotel.gif
Hotel Royal,307964,36 Newton Road,royal@hotelroyal.com.sg,362,Lee Chou Hock,1.31683060092808,103.841859487874,hotel.gif
Hotel Royal @ Queens,188553,12 Queen Street,info@royalqueens.com.sg,231,Lee Si Min,1.29752625749619,103.852133093109,hotel.gif
Hotel Snow Lavender,209854,26 CAVAN ROAD HOTEL SNOW,hotelsnow.lavender@gmail.com,32,Ngiam Seng Ngiap,1.31087924623786,103.861821449557,hotel.gif
Hotel Soloha,88387,12 TECK LIM ROAD,NA,45,Hu Yaocheng,1.28037791620728,103.841991814742,hotel.gif
Hotel Supreme,228750,15 Kramat Road,NA,86,Ang Poh Seow,1.30133935750645,103.842424737463,hotel.gif
Hotel Yan,207681,162 Tyrwhitt Road,reservations@hotel-yan.com,69,Lim Kah Eng,1.30981355102668,103.855108812764,hotel.gif
Hup Hoe Hotel,389525,586A Geylang Road,NA,10,Tan Tong Wah,1.31396450261326,103.887584117469,hotel.gif
ibis budget Singapore Bugis,188942,33 Middle Road,contact@fragrancehotel.com,84,Tan Thuang Wee,1.29692081795715,103.855556164289,hotel.gif
ibis budget Singapore Clarke Quay,59663,20 Hongkong Street,contact@fragrancehotel.com,101,Tan Thuang Wee,1.28789594572544,103.847146355817,hotel.gif
ibis budget Singapore Crystal,398824,50 Lorong 18 Geylang,contact@fragrancehotel.com,125,GAN KUAN YEW,1.31057497568161,103.880589488415,hotel.gif
ibis budget Singapore Emerald,399174,20 Lorong 6 Geylang,contact@fragrancehotel.com,126,Gan Kuan Yew,1.31100987837705,103.876341748039,hotel.gif
ibis budget Singapore Imperial,208187,28 Penhas Road,contact@fragrancehotel.com,74,Sun Yi,1.30963597847065,103.862425383983,hotel.gif
ibis budget Singapore Mount Faber,98838,400 Telok Blangah Road,contact@fragrancehotel.com,32,Sun Yi,1.26970676465938,103.813874982995,hotel.gif
ibis budget Singapore Pearl,398961,21 Lorong 14 Geylang,contact@fragrancehotel.com,129,GAN KUAN YEW,1.31156055920328,103.879289173768,hotel.gif
ibis budget Singapore Ruby,398730,10 Lorong 20 Geylang,contact@fragrancehotel.com,168,Gan Kuan yew,1.31223807766207,103.881097098283,hotel.gif
ibis budget Singapore Sapphire,399037,3 Lorong 10 Geylang,contact@fragrancehotel.com,50,GAN KUAN YEW,1.31175754744813,103.877769447217,hotel.gif
ibis budget Singapore Selegie,188329,183 Selegie Road,contact@fragrancehotel.com,95,Tan Thuang Wee,1.30376527735541,103.849948919677,hotel.gif
ibis budget Singapore West Coast,118759,418 Pasir Panjang Road,contact@fragrancehotel.com,57,Sun Yi,1.2922089251387,103.768888272797,hotel.gif
Ibis Singapore Novena,329543,6 Irrawaddy Road,NA,241,Lui Cheng Yan Josephine,1.32614785361247,103.845545056163,hotel.gif
Ibis Singapore on Bencoolen,189657,170 Bencoolen Street,H6657@accor.com,538,David Malcolm Lane,1.30096316425159,103.852422678333,hotel.gif
ibis Styles Singapore on Macpherson,368125,401 Macpherson Road,H9411@accor.com,298,Rolfe Shamila,1.33177053490393,103.879294508881,hotel.gif
InterContinental Singapore,188966,80 Middle Road,singapore@interconti.com,403,Andreas Kraemer,1.29846962637,103.854867046362,hotel.gif
InterContinental Singapore Robertson Quay,238909,1 NANSON ROAD,info.sinic@ihg.com,225,Tania Krassimirova Getzova,1.28984102269144,103.838551707065,hotel.gif
iStay.inn,58764,215A South Bridge Road,info@istayinn.com.sg,18,Lim So Geok,1.28298235047301,103.845924101605,hotel.gif
J8 Hotel,207606,8 Townshend Road,hq@j8hotel.com,98,Joseph Lee Boon Leng,1.30769755698718,103.858520506324,hotel.gif
Jade Hotel,399535,18 Jalan Molek,eddyswee2017@gmail.com,36,Suey Hueh King,1.31171183228565,103.882775886651,hotel.gif
Jayleen 1918 Hotel,59921,42 Carpenter Street,james@jayleen1918.com.sg,40,James Frederick Chong Kah Yean,1.28778717516192,103.847932686159,hotel.gif
The Regent Singapore,249715,1 Cuscaden Road,reservations@regentsingapore.com.sg,440,Oscar Joan Giorgius Postma,1.30467322365634,103.824897364807,hotel.gif
"The Ritz-Carlton, Millenia Singapore",39799,7 Raffles Avenue,sinrz.leads@ritzcarlton.com,608,Peter William Mainguy,1.29071830259005,103.860047265048,hotel.gif
The Scarlet Hotel,69333,33 Erskine Road,reservations@thescarlethotels.com,80,Anasri Bin T Onn,1.28082633621452,103.845399528928,hotel.gif
The Seacare Hotel,169875,52 Chin Swee Road,reservations@theseacarehotel.com.sg,103,Choo Sin How,1.28771626958407,103.839843127647,hotel.gif
The Southbridge Hotel,58759,210 South Bridge Road,admin@southbridge.com,47,"Leong Mun Choy, Bernard",1.28341894026954,103.845656808105,hotel.gif
The Sultan,199002,101 Jalan Sultan,info@thesultan.com.sg,60,Ong Shu Xian Charmaine,1.30316598668086,103.860975921584,hotel.gif
The Vagabond Club,207630,39 Syed Alwi Road,accounts@garchahotels.com,41,Harpreet Kaur Bedi,1.30689059540429,103.858401651016,hotel.gif
The Westin Singapore,18961,12 Marina View   Asia Square Tower 2,westin.singapore@westin.com,305,Kuljit Singh Sarjit Singh,1.27830729144643,103.850795186495,hotel.gif
Traveller@sg,208559,111H King George's Avenue,NA,7,Yan Tongji,1.31033177948249,103.861714993221,hotel.gif
K Space Inn 569,218184,569 SERANGOON ROAD 60'S HOSTEL,NA,7,CAI WENCHAO,1.31559230859372,103.858144106984,hotel.gif
Kim Tian Hotel,398678,21 Lorong 22 Geylang,NA,47,Steven Han How Chye,1.31205758973578,103.882458725423,hotel.gif
Kim Tian Hotel (Han),399281,29 Lorong 4 Geylang,NA,48,Steven Han How Chye,1.31016069700456,103.876202869193,hotel.gif
"PARKROYAL on Beach Road, Singapore",199591,7500A Beach Road The Plaza,enquiry@parkroyalhotels.com,346,CAMPILLO ANGELITO PAOLO LACSON,1.29945373680809,103.860070225371,hotel.gif
Q Loft Hotels@Bedok,469546,"357A BEDOK ROAD, # 1-",mgtqloft@gmail.com,12,TAN TIAN MEI,1.33160106900625,103.94704995457,hotel.gif
Q Loft Hotels@Mackenzie,228677,15 Mackenzie Road,NA,40,Tan Tian Mei,1.30437833815954,103.849798670544,hotel.gif
Raffles Hotel Singapore,189673,1 Beach Road,singapore@raffles.com,115,Christian Westbeld,1.29509740338279,103.854068347721,hotel.gif
Ramada Singapore at Zhongshan Park,329983,16 Ah Hood Road,info@ramadasingapore.com,382,Tony John Cousens,1.32710813170856,103.846374260603,hotel.gif
Reddoorz @ Aljunied,398691,34 LORONG 22 GEYLANG LEMON GRASS HOTEL,NA,42,AMIT SABERWAL,1.31116645434913,103.881861947743,hotel.gif
RedDoorz near Marine Parade Central,428996,400 EAST COAST ROAD GARDEN TERRACE HOTEL,NA,62,AMIT SABERWAL,1.30869695647047,103.912040454705,hotel.gif
The Noble Hotel,209012,407 JALAN BESAR THE NOBLE HOTEL,NA,30,Tay Hongwei Alinilson,1.31379680423507,103.859775934817,hotel.gif
The Pod,199552,"289 Beach Road  , # 03-01",info@thepodcapsulehotel.sg,15,Steven Lee Ngiap Hui,1.30105228944496,103.860546413684,hotel.gif
Snooze Inn @ Dunlop Street,209356,28 DUNLOP STREET KAWAN HOSTEL,NA,15,Tsai Shi Shyuan,1.30473915824794,103.854022759534,hotel.gif
Snooze Inn Pte Ltd,209518,43 DICKSON ROAD PHIL INN,NA,23,TSAI SHI SHYUAN,1.30536816987403,103.853723617758,hotel.gif
South East Asia Hotel,187965,190 Waterloo Street,seahotel@singnet.com.sg,51,Huang Wen Hwa,1.30108678628959,103.853135267954,hotel.gif
Spacepod@Lavender,208559,111J King George's Avenue,booking@bpsg.com.sg,8,Bian Haiqiu,1.31033177948249,103.861714993221,hotel.gif
Hotel 81 - Orchid,399090,21 Lorong 8 Geylang,hotel81@hotel81.com.sg,182,Chu Poh Yong,1.31119116358172,103.877277745979,hotel.gif
Hotel 81 - Osaka,169753,1 Eng Hoon Street,hotel81@hotel81.com.sg,74,Chu Poh Yong,1.28336484066759,103.834966686156,hotel.gif
Hotel 81 - Palace,398867,25 Lorong 16 Geylang,hotel81@hotel81.com.sg,192,Chu Poh Yong,1.31179140354756,103.880119073255,hotel.gif
Hotel 81 - Princess,399001,21 Lorong 12 Geylang,hotel81@hotel81.com.sg,133,Chu Poh Yong,1.31098893424992,103.878632309021,hotel.gif
Hotel 81 - Rochor,208785,5 Jalan Besar,hotel81@hotel81.com.sg,87,Chu Poh Yong,1.30375424119096,103.853983386178,hotel.gif
Hotel 81 - Sakura,427452,181 Joo Chiat Road,hotel81@hotel81.com.sg,75,Chu Poh Yong,1.31229179932804,103.900510985539,hotel.gif
Hotel 81 - Selegie,188318,161 Selegie Road,hotel81@hotel81.com.sg,81,Chu Poh Yong,1.3032844053482,103.849884117871,hotel.gif
Hotel 81 - Spring,388619,22 Lorong 15 Geylang,hotel81@hotel81.com.sg,32,Chu Poh Yong,1.31368275668813,103.878270058693,hotel.gif
Hotel 81 - Star,398828,31 Lorong 18 Geylang,hotel81@hotel81.com.sg,207,Chu Poh Yong,1.31160600473177,103.880860523551,hotel.gif
Hotel 81 - Tristar,424780,1 Onan Road,hotel81@hotel81.com.sg,116,Chu Poh Yong,1.31568836964855,103.897420527925,hotel.gif
Hotel 81 - Violet,338722,97 Lavender Street,hotel81@hotel81.com.sg,49,Chu Poh Yong,1.31106785024407,103.862164062966,hotel.gif
Value Hotel - Balestier,329684,218 Balestier Road,valuehotel@valuehotel.com.sg,208,Chu Poh Yong,1.32124006979661,103.853270441013,hotel.gif
Value Hotel - Nice,329738,302 Balestier Road,valuehotel@valuehotel.com.sg,63,Chu Poh Yong,1.32334493742066,103.852504389911,hotel.gif
Value Hotel - Thomson,329901,592 Balestier Road,valuehotel@valuehotel.com.sg,366,Chu Poh Yong,1.3269557412414,103.842719933396,hotel.gif
